     3.02           N: GNSS NAV DATA    R: GLONASS          RINEX VERSION / TYPE
sbf2rin-10.2.0                          20160106 003116 LCL PGM / RUN BY / DATE 
    17                                                      LEAP SECONDS        
                                                            END OF HEADER       
R19 2016 01 05 22 15 00-1.449948176742E-04-9.094947017729E-13 2.520000000000E+05
     1.244969531250E+04-2.694425582886E+00 2.793967723846E-09 0.000000000000E+00
     1.018319726563E+04-3.329896926880E-01-9.313225746155E-10 3.000000000000E+00
     1.980269873047E+04 1.864867210388E+00-0.000000000000E+00 0.000000000000E+00
R02 2016 01 05 22 15 00 1.700622960925E-04 1.818989403546E-12 2.520000000000E+05
    -1.267951220703E+04 1.702675819397E+00 0.000000000000E+00 0.000000000000E+00
     1.581318359375E+02-2.503135681152E+00 0.000000000000E+00-4.000000000000E+00
     2.216692529297E+04 9.897270202637E-01-2.793967723846E-09 0.000000000000E+00
R20 2016 01 05 22 15 00-2.130940556526E-04-1.818989403546E-12 2.520000000000E+05
     2.454562890625E+04-6.924648284912E-01 3.725290298462E-09 0.000000000000E+00
     4.470956054688E+03-2.587223052979E-01-9.313225746155E-10 2.000000000000E+00
     5.196214843750E+03 3.503420829773E+00 9.313225746155E-10 0.000000000000E+00
R18 2016 01 05 22 15 00 8.346512913704E-05 1.818989403546E-12 2.520900000000E+05
    -8.032625976563E+03-3.028744697571E+00 0.000000000000E+00 0.000000000000E+00
     9.783824707031E+03-1.483554840088E-01-0.000000000000E+00-3.000000000000E+00
     2.217126904297E+04-1.026844024658E+00-2.793967723846E-09 0.000000000000E+00
R12 2016 01 05 22 15 00 3.152620047331E-05 1.818989403546E-12 2.536200000000E+05
    -1.168445458984E+04-2.186269760132E-01-0.000000000000E+00 0.000000000000E+00
    -2.275818115234E+04 1.473426818848E-03 9.313225746155E-10-1.000000000000E+00
    -7.258081054688E+02 3.567109107971E+00-9.313225746155E-10 0.000000000000E+00
R01 2016 01 05 22 45 00-1.470576971769E-04 0.000000000000E+00 2.538000000000E+05
     1.132170410156E+03 8.323354721069E-01 2.793967723846E-09 0.000000000000E+00
    -2.007567236328E+04-1.984420776367E+00 0.000000000000E+00 1.000000000000E+00
     1.570045361328E+04-2.594703674316E+00-9.313225746155E-10 0.000000000000E+00
R10 2016 01 05 22 45 00 4.561617970467E-06 0.000000000000E+00 2.538000000000E+05
     1.205786816406E+04 1.750643730164E+00 3.725290298462E-09 0.000000000000E+00
    -1.346030273438E+02 2.539332389832E+00-9.313225746155E-10-7.000000000000E+00
     2.245227246094E+04-9.308671951294E-01-0.000000000000E+00 0.000000000000E+00
R08 2016 01 05 22 45 00-2.703163772821E-05 0.000000000000E+00 2.538000000000E+05
     1.114358593750E+04-1.446485519409E-01 2.793967723846E-09 0.000000000000E+00
    -2.295368945313E+04-6.430816650391E-02 0.000000000000E+00 6.000000000000E+00
     4.786132812500E+00-3.566494941711E+00 9.313225746155E-10 0.000000000000E+00
R11 2016 01 05 22 45 00 2.139061689377E-05 0.000000000000E+00 2.538000000000E+05
     5.550024414063E+02 1.465807914734E+00 2.793967723846E-09 0.000000000000E+00
    -1.563716552734E+04 2.340155601501E+00 0.000000000000E+00 0.000000000000E+00
     2.011956494141E+04 1.786410331726E+00-9.313225746155E-10 0.000000000000E+00
R02 2016 01 05 22 45 00 1.700669527054E-04 1.818989403546E-12 2.538000000000E+05
    -9.884486816406E+03 1.372667312622E+00 9.313225746155E-10 0.000000000000E+00
    -4.685069335938E+03-2.836603164673E+00 0.000000000000E+00-4.000000000000E+00
     2.307153808594E+04 8.816719055176E-03-2.793967723846E-09 0.000000000000E+00
R19 2016 01 05 22 45 00-1.449966803193E-04-9.094947017729E-13 2.538000000000E+05
     7.226599609375E+03-3.061004638672E+00 1.862645149231E-09 0.000000000000E+00
     9.950964843750E+03 9.234905242920E-02-9.313225746155E-10 3.000000000000E+00
     2.235096875000E+04 9.481706619263E-01-9.313225746155E-10 0.000000000000E+00
R20 2016 01 05 22 45 00-2.130977809429E-04-1.818989403546E-12 2.538000000000E+05
     2.251595117188E+04-1.544512748718E+00 3.725290298462E-09 0.000000000000E+00
     4.106497070313E+03-1.067590713501E-01-9.313225746155E-10 2.000000000000E+00
     1.121926220703E+04 3.145318984985E+00 9.313225746155E-10 0.000000000000E+00
R09 2016 01 05 22 45 00 2.350192517042E-05 9.094947017729E-13 2.538000000000E+05
     1.685504296875E+04 1.047104835510E+00 1.862645149231E-09 0.000000000000E+00
     1.506450146484E+04 1.260005950928E+00-1.862645149231E-09-2.000000000000E+00
     1.190611718750E+04-3.062291145325E+00 0.000000000000E+00 0.000000000000E+00
R12 2016 01 05 22 45 00 3.152992576361E-05 1.818989403546E-12 2.538000000000E+05
    -1.166436718750E+04 2.736520767212E-01 0.000000000000E+00 0.000000000000E+00
    -2.206136865234E+04 7.474336624146E-01 9.313225746155E-10-1.000000000000E+00
     5.640596191406E+03 3.461150169373E+00-9.313225746155E-10 0.000000000000E+00
R21 2016 01 05 22 45 00 4.550721496344E-05 1.818989403546E-12 2.543400000000E+05
     2.462970312500E+04 7.186841964722E-01 2.793967723846E-09 0.000000000000E+00
    -4.035209472656E+03-2.321443557739E-01-9.313225746155E-10 4.000000000000E+00
    -5.342093750000E+03 3.483793258667E+00 1.862645149231E-09 0.000000000000E+00
R01 2016 01 05 23 15 00-1.470567658544E-04 0.000000000000E+00 2.556000000000E+05
     2.155619628906E+03 3.245735168457E-01 2.793967723846E-09 0.000000000000E+00
    -2.316057080078E+04-1.403664588928E+00 0.000000000000E+00 1.000000000000E+00
     1.048360205078E+04-3.164155006409E+00 0.000000000000E+00 0.000000000000E+00
R10 2016 01 05 23 15 00 4.563480615616E-06 0.000000000000E+00 2.556000000000E+05
     1.536969189453E+04 1.886200904846E+00 2.793967723846E-09 0.000000000000E+00
     3.966894531250E+03 1.988777160645E+00-1.862645149231E-09-7.000000000000E+00
     1.992800781250E+04-1.855767250061E+00-0.000000000000E+00 0.000000000000E+00
R20 2016 01 05 23 15 00-2.131015062332E-04-1.818989403546E-12 2.556000000000E+05
     1.908335888672E+04-2.234121322632E+00 2.793967723846E-09 0.000000000000E+00
     4.213506347656E+03 2.553472518921E-01-1.862645149231E-09 2.000000000000E+00
     1.637293994141E+04 2.543814659119E+00 0.000000000000E+00 0.000000000000E+00
R11 2016 01 05 23 15 00 2.139154821634E-05 0.000000000000E+00 2.556000000000E+05
     3.705589355469E+03 2.016950607300E+00 2.793967723846E-09 0.000000000000E+00
    -1.138493701172E+04 2.336256027222E+00-0.000000000000E+00 0.000000000000E+00
     2.251432080078E+04 8.573570251465E-01-9.313225746155E-10 0.000000000000E+00
R02 2016 01 05 23 15 00 1.700706779957E-04 1.818989403546E-12 2.556000000000E+05
    -7.818839355469E+03 9.084634780884E-01 1.862645149231E-09 0.000000000000E+00
    -9.887046875000E+03-2.893823623657E+00 0.000000000000E+00-4.000000000000E+00
     2.219789453125E+04-9.733695983887E-01-1.862645149231E-09 0.000000000000E+00
R08 2016 01 05 23 15 00-2.703163772821E-05-0.000000000000E+00 2.556000000000E+05
     1.060029394531E+04-4.189577102661E-01 1.862645149231E-09 0.000000000000E+00
    -2.231656835938E+04 7.808856964111E-01-0.000000000000E+00 6.000000000000E+00
    -6.332150878906E+03-3.428800582886E+00 1.862645149231E-09 0.000000000000E+00
R12 2016 01 05 23 15 00 3.153458237648E-05 1.818989403546E-12 2.556000000000E+05
    -1.060538037109E+04 9.214534759521E-01 9.313225746155E-10 0.000000000000E+00
    -2.018458837891E+04 1.299242019653E+00 9.313225746155E-10-1.000000000000E+00
     1.157456689453E+04 3.089584350586E+00-9.313225746155E-10 0.000000000000E+00
R19 2016 01 05 23 15 00-1.449985429645E-04-9.094947017729E-13 2.556000000000E+05
     1.613695312500E+03-3.123121261597E+00 9.313225746155E-10 0.000000000000E+00
     1.054645214844E+04 5.686807632446E-01-9.313225746155E-10 3.000000000000E+00
     2.317202539063E+04-4.181575775146E-02-1.862645149231E-09 0.000000000000E+00
R21 2016 01 05 23 15 00 4.551094025373E-05 1.818989403546E-12 2.556000000000E+05
     2.511585498047E+04-1.780796051025E-01 2.793967723846E-09 0.000000000000E+00
    -4.426090820313E+03-1.606206893921E-01-1.862645149231E-09 4.000000000000E+00
     1.054031738281E+03 3.576941490173E+00 1.862645149231E-09 0.000000000000E+00
R01 2016 01 05 23 45 00-1.470558345318E-04 0.000000000000E+00 2.574000000000E+05
     2.397157714844E+03-2.338027954102E-02 2.793967723846E-09 0.000000000000E+00
    -2.500954492188E+04-6.251306533813E-01-0.000000000000E+00 1.000000000000E+00
     4.456639648438E+03-3.489005088806E+00 9.313225746155E-10 0.000000000000E+00
R20 2016 01 05 23 45 00-2.131052315235E-04-1.818989403546E-12 2.574000000000E+05
     1.462370605469E+04-2.674068450928E+00 1.862645149231E-09 0.000000000000E+00
     5.106542968750E+03 7.512283325195E-01-1.862645149231E-09 2.000000000000E+00
     2.025886523438E+04 1.745935440063E+00-0.000000000000E+00 0.000000000000E+00
R10 2016 01 05 23 45 00 4.564411938190E-06 0.000000000000E+00 2.574000000000E+05
     1.868122167969E+04 1.745012283325E+00 1.862645149231E-09 0.000000000000E+00
     6.952374023438E+03 1.317719459534E+00-1.862645149231E-09-7.000000000000E+00
     1.585763720703E+04-2.637487411499E+00 0.000000000000E+00 0.000000000000E+00
R11 2016 01 05 23 45 00 2.139341086149E-05 0.000000000000E+00 2.574000000000E+05
     7.720502441406E+03 2.409662246704E+00 2.793967723846E-09 0.000000000000E+00
    -7.387760253906E+03 2.065242767334E+00-9.313225746155E-10 0.000000000000E+00
     2.316702490234E+04-1.365861892700E-01-9.313225746155E-10 0.000000000000E+00
R02 2016 01 05 23 45 00 1.700734719634E-04 1.818989403546E-12 2.574000000000E+05
    -6.631997558594E+03 4.143781661987E-01 1.862645149231E-09 0.000000000000E+00
    -1.492083203125E+04-2.649273872375E+00-0.000000000000E+00-4.000000000000E+00
     1.961208007813E+04-1.881284713745E+00-9.313225746155E-10 0.000000000000E+00
